     2.100          NAVIGATION                              RINEX VERSION / TYPE
fic2rin                                 01/31/2010 00:22:55 PGM / RUN BY / DATE
                                                            END OF HEADER
24 10  1 31  0  0  0.0  .258265528828D-03  .318323145621D-11  .000000000000D+00
     .220000000000D+02  .380312500000D+02  .536629495630D-08 -.148826965668D+01
     .192597508430D-05  .591996824369D-02  .524148344994D-05  .515488197517D+04
     .000000000000D+00 -.540167093277D-07  .142751075115D+01 -.124797224998D-06
     .949116348037D+00  .272968750000D+03 -.476238328118D+00 -.856107088868D-08
     .538236705433D-09  .100000000000D+01  .156900000000D+04  .000000000000D+00
     .240000000000D+01  .000000000000D+00 -.139698386192D-08  .220000000000D+02
     .597606000000D+06  .400000000000D+01
25 10  1 31  0  0  0.0  .899769365788D-04  .716227077646D-11  .000000000000D+00
     .510000000000D+02  .959062500000D+02  .469555273148D-08 -.714267641211D+00
     .508874654770D-05  .114977295743D-01  .257231295109D-05  .515368061447D+04
     .000000000000D+00 -.106170773506D-06 -.185714282799D+01 -.931322574615D-08
     .972054306649D+00  .338437500000D+03 -.120260545755D+01 -.863714548606D-08
     .383230248792D-09  .100000000000D+01  .156900000000D+04  .000000000000D+00
     .240000000000D+01  .630000000000D+02 -.745058059692D-08  .510000000000D+02
     .597606000000D+06  .400000000000D+01
26 10  1 31  0  0  0.0 -.140988267958D-04 -.329691829393D-11  .000000000000D+00
     .250000000000D+02  .987187500000D+02  .358907807094D-08  .540980111502D+00
     .553205609322D-05  .196806436870D-01  .136699527502D-04  .515363192940D+04
     .000000000000D+00 -.279396772385D-06 -.274993834117D+01  .102445483208D-06
     .991766700595D+00  .136781250000D+03  .105945636192D+01 -.781603985515D-08
    -.108933108930D-09  .100000000000D+01  .156900000000D+04  .000000000000D+00
     .240000000000D+01  .000000000000D+00 -.605359673500D-08  .250000000000D+02
     .597606000000D+06  .400000000000D+01
27 10  1 31  0  0  0.0  .121855176985D-03  .341060513165D-11  .000000000000D+00
     .840000000000D+02  .118843750000D+03  .454697511405D-08 -.293166094534D+01
     .610575079918D-05  .217765746638D-01  .155903398991D-05  .515367795181D+04
     .000000000000D+00  .340864062309D-06 -.181992169504D+01  .150874257088D-06
     .976935250897D+00  .353718750000D+03 -.147269635976D+01 -.815569686037D-08
     .443947063606D-09  .100000000000D+01  .156900000000D+04  .000000000000D+00
     .340000000000D+01  .000000000000D+00 -.419095158577D-08  .840000000000D+02
     .597606000000D+06  .400000000000D+01
29 10  1 31  0  0  0.0  .941851176322D-04  .306954461848D-11  .000000000000D+00
     .420000000000D+02 -.448750000000D+02  .412660046090D-08  .289409500553D+00
    -.222399830818D-05  .288857647683D-02  .144653022289D-04  .515381439590D+04
     .000000000000D+00 -.204890966415D-07  .358730602272D+00 -.391155481339D-07
     .960742057072D+00  .102187500000D+03 -.131370647264D+01 -.781032533140D-08
     .400373820034D-09  .100000000000D+01  .156900000000D+04  .000000000000D+00
     .240000000000D+01  .000000000000D+00 -.884756445885D-08  .420000000000D+02
     .597606000000D+06  .400000000000D+01
30 10  1 31  0  0  0.0  .215265434235D-03  .329691829393D-11  .000000000000D+00
     .460000000000D+02 -.136187500000D+03  .491984778855D-08 -.138738316571D+01
    -.690855085850D-05  .119628118118D-01  .426359474659D-05  .515378905106D+04
     .000000000000D+00  .298023223877D-07 -.760975198106D+00  .361353158951D-06
     .954856213914D+00  .292437500000D+03  .147238458705D+01 -.860642992092D-08
    -.537879547699D-09  .100000000000D+01  .156900000000D+04  .000000000000D+00
     .340000000000D+01  .000000000000D+00 -.791624188423D-08  .460000000000D+02
     .597606000000D+06  .400000000000D+01
31 10  1 31  0  0  0.0 -.533610582352D-04  .147792889038D-11  .000000000000D+00
     .590000000000D+02  .867187500000D+02  .457769067919D-08  .942658786254D+00
     .430643558502D-05  .758887524717D-02  .240653753281D-05  .515360652351D+04
     .000000000000D+00 -.372529029846D-07 -.176404479438D+01 -.137835741043D-06
     .975371708924D+00  .339812500000D+03 -.110817060794D+01 -.847642450568D-08
     .261439461432D-09  .100000000000D+01  .156900000000D+04  .000000000000D+00
     .240000000000D+01  .000000000000D+00 -.130385160446D-07  .590000000000D+02
     .597606000000D+06  .400000000000D+01
32 10  1 31  0  0  0.0  .105614308268D-03 -.818545231596D-11  .000000000000D+00
     .410000000000D+02 -.530312500000D+02  .472555398115D-08  .175956618625D+01
    -.279583036900D-05  .128983121831D-01  .864826142788D-05  .515360131073D+04
     .000000000000D+00  .225380063057D-06  .250982013613D+01  .931322574615D-08
     .960634529667D+00  .212531250000D+03 -.102844512312D+01 -.797568936233D-08
    -.721101465342D-09  .100000000000D+01  .156900000000D+04  .000000000000D+00
     .240000000000D+01  .000000000000D+00 -.325962901115D-08  .410000000000D+02
     .597606000000D+06  .400000000000D+01
